IRIDIUM 144             
1 43249U 18030A   26027.43772007  .00000534  00000+0  18374-3 0  9998
2 43249  86.3996 349.2406 0002184  83.7237 276.4207 14.34216191409966
IRIDIUM 149             
1 43250U 18030B   26027.58360006  .00000093  00000+0  26110-4 0  9996
2 43250  86.3999 349.1476 0002252  88.3825 271.7629 14.34216109410009
IRIDIUM 157             
1 43251U 18030C   26027.39332033  .00000189  00000+0  60493-4 0  9993
2 43251  86.4000 349.2775 0002165  87.2335 272.9109 14.34216579409953
IRIDIUM 140             
1 43252U 18030D   26027.41235083  .00000107  00000+0  31314-4 0  9994
2 43252  86.3996 349.2822 0002242  84.2652 275.8800 14.34216931410016
IRIDIUM 145             
1 43253U 18030E   26027.39966882  .00000188  00000+0  60246-4 0  9995
2 43253  86.3999 349.2602 0002051  76.2356 283.9068 14.34217465409945
IRIDIUM 146             
1 43254U 18030F   26027.58994521  .00000219  00000+0  71188-4 0  9990
2 43254  86.3996 349.1935 0002054  82.1033 278.0396 14.34217265409983
IRIDIUM 148             
1 43255U 18030G   26027.41869661  .00000418  00000+0  14218-3 0  9990
2 43255  86.4001 349.3059 0002144  86.2898 273.8543 14.34218772409997
IRIDIUM 142             
1 43256U 18030H   26027.38698240  .00000406  00000+0  13809-3 0  9992
2 43256  86.3998 349.2134 0002063  76.5683 283.5742 14.34217488409957
